{
  "norad_id": 37867,
  "name": "COSMOS 2476 [GLONASS-M]",
  "history": [
    {
      "epoch": "2026-03-22T07:44:15.606240Z",
      "apogee_km": 19193.83540883628,
      "perigee_km": 19065.638446208814,
      "latitude_deg": 48.56979368245294,
      "longitude_deg": -71.62117258887194,
      "height_km": 19165.658864607325,
      "semi_major_axis_km": 25507.873927522545,
      "eccentricity": 0.00251289,
      "inclination_deg": 65.2205,
      "raan_deg": 75.8028,
      "arg_perigee_deg": 241.8014,
      "mean_anomaly_deg": 242.7933,
      "mean_motion_rev_day": 2.13103886
    }
  ]
}